STARLINK-30494          
1 57970U 23151G   26068.36049035 -.00001272  00000+0 -35691-4 0  9993
2 57970  43.0027 192.4566 0001155 241.5536 118.5200 15.28417441137406
STARLINK-35931          
1 66519U 25265D   26068.95828950  .00023059  00000+0  84454-3 0  9991
2 66519  42.9996 276.4938 0001391 249.1203 110.9500 15.27591459 17150
